TIANMU-1 08             
1 57400U 23101B   26066.00237819  .00000346  00000+0  14775-4 0  9993
2 57400  97.2717 118.7901 0006380 134.2174 225.9592 15.29204229146020
STARLINK-34028          
1 63973U 25099X   26068.36251445  .00026121  00000+0  95511-3 0  9990
2 63973  43.0007 174.8226 0001832 273.3040  86.7602 15.27589150 47325
